{
  "type": "FeatureCollection",
  "features": [
    {
      "type": "Feature",
      "properties": {
        "norad_id": 15362,
        "name": "NOVA 3",
        "group": "nnss",
        "lat": -29.578957736336807,
        "lon": 80.51778811710471,
        "alt_km": 1157.1947520706044,
        "timestamp": "2025-12-05T09:41:19.397312+00:00",
        "meta_object_name": "NOVA 3",
        "meta_object_id": "1984-110A",
        "meta_epoch": "2025-12-04T16:20:12.003936",
        "meta_mean_motion": 13.23043125,
        "meta_eccentricity": 0.0031157,
        "meta_inclination": 90.1225,
        "meta_ra_of_asc_node": 80.4397,
        "meta_arg_of_pericenter": 354.5615,
        "meta_mean_anomaly": 134.4632,
        "meta_ephemeris_type": 0,
        "meta_classification_type": "U",
        "meta_norad_cat_id": 15362,
        "meta_element_set_no": 999,
        "meta_rev_at_epoch": 98592,
        "meta_bstar": 0.00017125,
        "meta_mean_motion_dot": 8e-07,
        "meta_mean_motion_ddot": 0,
        "tle_line1": "1 15362U 84110A   25338.68069449  .00000080  00000+0  17125-3 0  9994",
        "tle_line2": "2 15362  90.1225  80.4397 0031157 354.5615 134.4632 13.23043125985925"
      },
      "geometry": {
        "type": "Point",
        "coordinates": [
          80.51778811710471,
          -29.578957736336807
        ]
      }
    },
    {
      "type": "Feature",
      "properties": {
        "norad_id": 15935,
        "name": "OSCAR 30",
        "group": "nnss",
        "lat": 66.47950900818243,
        "lon": 99.34850155991799,
        "alt_km": 1016.3633935349453,
        "timestamp": "2025-12-05T09:41:19.397324+00:00",
        "meta_object_name": "OSCAR 30",
        "meta_object_id": "1985-066A",
        "meta_epoch": "2025-12-04T08:27:50.109120",
        "meta_mean_motion": 13.36076288,
        "meta_eccentricity": 0.0169359,
        "meta_inclination": 90.1647,
        "meta_ra_of_asc_node": 99.7101,
        "meta_arg_of_pericenter": 107.3134,
        "meta_mean_anomaly": 308.0142,
        "meta_ephemeris_type": 0,
        "meta_classification_type": "U",
        "meta_norad_cat_id": 15935,
        "meta_element_set_no": 999,
        "meta_rev_at_epoch": 96341,
        "meta_bstar": 0.00025336,
        "meta_mean_motion_dot": 1.51e-06,
        "meta_mean_motion_ddot": 0,
        "tle_line1": "1 15935U 85066A   25338.35266330  .00000151  00000+0  25336-3 0  9995",
        "tle_line2": "2 15935  90.1647  99.7101 0169359 107.3134 308.0142 13.36076288963416"
      },
      "geometry": {
        "type": "Point",
        "coordinates": [
          99.34850155991799,
          66.47950900818243
        ]
      }
    },
    {
      "type": "Feature",
      "properties": {
        "norad_id": 15936,
        "name": "OSCAR 24",
        "group": "nnss",
        "lat": 31.94238247484148,
        "lon": -87.71291661932948,
        "alt_km": 1019.9630695095548,
        "timestamp": "2025-12-05T09:41:19.397334+00:00",
        "meta_object_name": "OSCAR 24",
        "meta_object_id": "1985-066B",
        "meta_epoch": "2025-12-04T09:56:28.925952",
        "meta_mean_motion": 13.35933943,
        "meta_eccentricity": 0.0170375,
        "meta_inclination": 90.1787,
        "meta_ra_of_asc_node": 92.1582,
        "meta_arg_of_pericenter": 113.5804,
        "meta_mean_anomaly": 317.2745,
        "meta_ephemeris_type": 0,
        "meta_classification_type": "U",
        "meta_norad_cat_id": 15936,
        "meta_element_set_no": 999,
        "meta_rev_at_epoch": 96532,
        "meta_bstar": 0.00020656,
        "meta_mean_motion_dot": 1.25e-06,
        "meta_mean_motion_ddot": 0,
        "tle_line1": "1 15936U 85066B   25338.41422368  .00000125  00000+0  20656-3 0  9999",
        "tle_line2": "2 15936  90.1787  92.1582 0170375 113.5804 317.2745 13.35933943965327"
      },
      "geometry": {
        "type": "Point",
        "coordinates": [
          -87.71291661932948,
          31.94238247484148
        ]
      }
    },
    {
      "type": "Feature",
      "properties": {
        "norad_id": 17070,
        "name": "POLAR BEAR",
        "group": "nnss",
        "lat": 25.450144203745563,
        "lon": -175.75119910390788,
        "alt_km": 992.4623287706181,
        "timestamp": "2025-12-05T09:41:19.397345+00:00",
        "meta_object_name": "POLAR BEAR",
        "meta_object_id": "1986-088A",
        "meta_epoch": "2025-12-04T14:38:26.434752",
        "meta_mean_motion": 13.75248292,
        "meta_eccentricity": 0.0040398,
        "meta_inclination": 89.618,
        "meta_ra_of_asc_node": 184.0988,
        "meta_arg_of_pericenter": 142.9088,
        "meta_mean_anomaly": 276.0886,
        "meta_ephemeris_type": 0,
        "meta_classification_type": "U",
        "meta_norad_cat_id": 17070,
        "meta_element_set_no": 999,
        "meta_rev_at_epoch": 95867,
        "meta_bstar": 0.00016782,
        "meta_mean_motion_dot": 1.73e-06,
        "meta_mean_motion_ddot": 0,
        "tle_line1": "1 17070U 86088A   25338.61002818  .00000173  00000+0  16782-3 0  9999",
        "tle_line2": "2 17070  89.6180 184.0988 0040398 142.9088 276.0886 13.75248292958678"
      },
      "geometry": {
        "type": "Point",
        "coordinates": [
          -175.75119910390788,
          25.450144203745563
        ]
      }
    },
    {
      "type": "Feature",
      "properties": {
        "norad_id": 18361,
        "name": "OSCAR 27",
        "group": "nnss",
        "lat": 4.589265947410643,
        "lon": 78.9678022434004,
        "alt_km": 1130.562342474449,
        "timestamp": "2025-12-05T09:41:19.397356+00:00",
        "meta_object_name": "OSCAR 27",
        "meta_object_id": "1987-080A",
        "meta_epoch": "2025-12-04T15:48:35.867808",
        "meta_mean_motion": 13.44904063,
        "meta_eccentricity": 0.0102446,
        "meta_inclination": 90.3742,
        "meta_ra_of_asc_node": 78.97,
        "meta_arg_of_pericenter": 247.2694,
        "meta_mean_anomaly": 111.7601,
        "meta_ephemeris_type": 0,
        "meta_classification_type": "U",
        "meta_norad_cat_id": 18361,
        "meta_element_set_no": 999,
        "meta_rev_at_epoch": 87448,
        "meta_bstar": 0.00026829,
        "meta_mean_motion_dot": 1.7e-06,
        "meta_mean_motion_ddot": 0,
        "tle_line1": "1 18361U 87080A   25338.65874847  .00000170  00000+0  26829-3 0  9999",
        "tle_line2": "2 18361  90.3742  78.9700 0102446 247.2694 111.7601 13.44904063874480"
      },
      "geometry": {
        "type": "Point",
        "coordinates": [
          78.9678022434004,
          4.589265947410643
        ]
      }
    },
    {
      "type": "Feature",
      "properties": {
        "norad_id": 18362,
        "name": "OSCAR 29",
        "group": "nnss",
        "lat": 28.888857711305427,
        "lon": 79.2488483001502,
        "alt_km": 1130.0366627806816,
        "timestamp": "2025-12-05T09:41:19.397367+00:00",
        "meta_object_name": "OSCAR 29",
        "meta_object_id": "1987-080B",
        "meta_epoch": "2025-12-04T07:01:08.237280",
        "meta_mean_motion": 13.44445999,
        "meta_eccentricity": 0.0103714,
        "meta_inclination": 90.3755,
        "meta_ra_of_asc_node": 79.4145,
        "meta_arg_of_pericenter": 271.7522,
        "meta_mean_anomaly": 140.9753,
        "meta_ephemeris_type": 0,
        "meta_classification_type": "U",
        "meta_norad_cat_id": 18362,
        "meta_element_set_no": 999,
        "meta_rev_at_epoch": 87396,
        "meta_bstar": 0.00022874,
        "meta_mean_motion_dot": 1.45e-06,
        "meta_mean_motion_ddot": 0,
        "tle_line1": "1 18362U 87080B   25338.29245645  .00000145  00000+0  22874-3 0  9996",
        "tle_line2": "2 18362  90.3755  79.4145 0103714 271.7522 140.9753 13.44445999873967"
      },
      "geometry": {
        "type": "Point",
        "coordinates": [
          79.2488483001502,
          28.888857711305427
        ]
      }
    },
    {
      "type": "Feature",
      "properties": {
        "norad_id": 19070,
        "name": "OSCAR 23",
        "group": "nnss",
        "lat": -64.27979859240396,
        "lon": -164.5040800477513,
        "alt_km": 1058.5761761709346,
        "timestamp": "2025-12-05T09:41:19.397377+00:00",
        "meta_object_name": "OSCAR 23",
        "meta_object_id": "1988-033A",
        "meta_epoch": "2025-12-04T16:47:37.218912",
        "meta_mean_motion": 13.27785277,
        "meta_eccentricity": 0.0188859,
        "meta_inclination": 90.3222,
        "meta_ra_of_asc_node": 16.1432,
        "meta_arg_of_pericenter": 202.3081,
        "meta_mean_anomaly": 277.4434,
        "meta_ephemeris_type": 0,
        "meta_classification_type": "U",
        "meta_norad_cat_id": 19070,
        "meta_element_set_no": 999,
        "meta_rev_at_epoch": 82146,
        "meta_bstar": 0.00021638,
        "meta_mean_motion_dot": 1.15e-06,
        "meta_mean_motion_ddot": 0,
        "tle_line1": "1 19070U 88033A   25338.69973633  .00000115  00000+0  21638-3 0  9995",
        "tle_line2": "2 19070  90.3222  16.1432 0188859 202.3081 277.4434 13.27785277821460"
      },
      "geometry": {
        "type": "Point",
        "coordinates": [
          -164.5040800477513,
          -64.27979859240396
        ]
      }
    }
  ]
}